{
  "type": "FeatureCollection",
  "features": [
    {
      "type": "Feature",
      "properties": {
        "norad_id": 54259,
        "name": "EUTELSAT 10B",
        "group": "eutelsat",
        "lat": 0.049315973723890176,
        "lon": 174.27508106466746,
        "alt_km": 35778.69648451865,
        "timestamp": "2025-12-08T05:48:08.719015+00:00",
        "meta_object_name": "EUTELSAT 10B",
        "meta_object_id": "2022-157A",
        "meta_epoch": "2025-12-07T22:14:30.215040",
        "meta_mean_motion": 1.00277457,
        "meta_eccentricity": 0.00013965,
        "meta_inclination": 0.0613,
        "meta_ra_of_asc_node": 101.8318,
        "meta_arg_of_pericenter": 82.7656,
        "meta_mean_anomaly": 235.9586,
        "meta_ephemeris_type": 0,
        "meta_classification_type": "U",
        "meta_norad_cat_id": 54259,
        "meta_element_set_no": 999,
        "meta_rev_at_epoch": 1110,
        "meta_bstar": 0,
        "meta_mean_motion_dot": 7.2e-07,
        "meta_mean_motion_ddot": 0,
        "tle_line1": "1 54259U 22157A   25341.92673860  .00000072  00000+0  00000+0 0  9995",
        "tle_line2": "2 54259   0.0613 101.8318 0001396  82.7656 235.9586  1.00277457 11106"
      },
      "geometry": {
        "type": "Point",
        "coordinates": [
          174.27508106466746,
          0.049315973723890176
        ]
      }
    },
    {
      "type": "Feature",
      "properties": {
        "norad_id": 59346,
        "name": "EUTELSAT 36D",
        "group": "eutelsat",
        "lat": -0.021296498648673556,
        "lon": -159.86721968925616,
        "alt_km": 35787.241427640954,
        "timestamp": "2025-12-08T05:48:08.719031+00:00",
        "meta_object_name": "EUTELSAT 36D",
        "meta_object_id": "2024-059A",
        "meta_epoch": "2025-12-07T13:48:21.486816",
        "meta_mean_motion": 1.00269502,
        "meta_eccentricity": 5.157e-05,
        "meta_inclination": 0.0194,
        "meta_ra_of_asc_node": 354.4859,
        "meta_arg_of_pericenter": 312.0912,
        "meta_mean_anomaly": 12.9682,
        "meta_ephemeris_type": 0,
        "meta_classification_type": "U",
        "meta_norad_cat_id": 59346,
        "meta_element_set_no": 999,
        "meta_rev_at_epoch": 622,
        "meta_bstar": 0,
        "meta_mean_motion_dot": 0,
        "meta_mean_motion_ddot": 0,
        "tle_line1": "1 59346U 24059A   25341.57524869  .00000000  00000+0  00000+0 0  9996",
        "tle_line2": "2 59346   0.0194 354.4859 0000515 312.0912  12.9682  1.00269502  6223"
      },
      "geometry": {
        "type": "Point",
        "coordinates": [
          -159.86721968925616,
          -0.021296498648673556
        ]
      }
    }
  ]
}